STARLINK-5702           
1 55622U 23020BF  23070.79893080  .00015659  00000+0  12252-3 0  9993
2 55622  42.9997 189.8498 0002953 246.4855 113.5702 15.71375267  4357
STARLINK-5698           
1 55623U 23020BG  23070.79882337  .00004029  00000+0  34146-4 0  9993
2 55623  42.9983 189.8486 0002880 241.7813 118.2764 15.71366445  4359
FALCON 9 DEB            
1 55624U 23020BH  23070.38820828  .01427380  14485-2  12470-2 0  9995
2 55624  43.0066 187.4174 0006142 119.3018 240.8479 16.12537541  4341
FALCON 9 DEB            
1 55625U 23020BJ  23070.67989040  .01674135  24279-2  11671-2 0  9996
2 55625  42.9974 185.2699 0004896 114.6716 245.4678 16.16012526  4395
FALCON 9 DEB            
1 55626U 23020BK  23070.71656327  .01941422  41596-2  11411-2 0  9990
2 55626  42.9983 184.6533 0005801  94.4591 265.6957 16.18745609  4402
FALCON 9 DEB            
1 55627U 23020BL  23070.66297664  .01654129  23664-2  11283-2 0  9998
2 55627  42.9903 185.1159 0006173  90.7769 269.3823 16.16279702  4399
STARLINK-5484           
1 55628U 23021A   23070.51852554  .00010731  00000+0  90914-4 0  9999
2 55628  69.9998  88.8053 0002543 303.4496  56.6456 15.69922363  4263
STARLINK-5497           
1 55629U 23021B   23070.51862617  .00014980  00000+0  12611-3 0  9998
2 55629  70.0007  88.8021 0002912 282.2862  77.8008 15.69928589  4268
STARLINK-5303           
1 55630U 23021C   23070.51842070 -.00004291  00000+0 -33968-4 0  9996
2 55630  70.0000  88.8035 0002960 281.7362  78.3501 15.69906200  3966
STARLINK-5558           
1 55631U 23021D   23070.51777802  .00003284  00000+0  29062-4 0  9996
2 55631  70.0001  88.7991 0003302 269.7464  90.3353 15.69930100  4267
STARLINK-5546           
1 55632U 23021E   23070.51820133  .00008327  00000+0  70922-4 0  9997
2 55632  70.0005  88.8011 0002954 266.8324  93.2533 15.69934917  4263
STARLINK-5498           
1 55633U 23021F   23070.51810353 -.00001742  00000+0 -12734-4 0  9994
2 55633  70.0005  88.8008 0002883 279.4083  80.6787 15.69910395  3964
STARLINK-5500           
1 55634U 23021G   23070.51831186  .00000336  00000+0  45662-5 0  9995
2 55634  70.0004  88.8013 0002886 274.5893  85.4973 15.69918188  3966
STARLINK-5495           
1 55635U 23021H   23070.51736304  .00000631  00000+0  70168-5 0  9999
2 55635  70.0003  88.7971 0002987 275.8402  84.2453 15.69919098  3950
STARLINK-5218           
1 55636U 23021J   23070.51789103  .00000544  00000+0  62960-5 0  9999
2 55636  70.0006  88.7997 0003115 279.8499  80.2345 15.69915806  3966
STARLINK-5062           
1 55637U 23021K   23070.51725794 -.00002557  00000+0 -19511-4 0  9997
2 55637  70.0005  88.7965 0003139 276.6596  83.4243 15.69911696  3965
STARLINK-5507           
1 55638U 23021L   23070.51798584  .00008019  00000+0  68338-4 0  9993
2 55638  70.0002  88.7992 0003635 263.3340  96.7442 15.69943188  3952
STARLINK-5508           
1 55639U 23021M   23070.51672343  .00007299  00000+0  62380-4 0  9998
2 55639  70.0003  88.7946 0003140 262.1934  97.8906 15.69939615  4262
STARLINK-5069           
1 55640U 23021N   23070.51630797  .00003164  00000+0  28074-4 0  9996
2 55640  70.0006  88.7933 0002869 277.3200  82.7670 15.69922831  4267
STARLINK-5065           
1 55641U 23021P   23070.51683714  .00000508  00000+0  59911-5 0  9998
2 55641  70.0006  88.7951 0002694 280.9265  79.1628 15.69918540  3955
STARLINK-5478           
1 55642U 23021Q   23070.51768071  .00002671  00000+0  23990-4 0  9999
2 55642  70.0007  88.7989 0002859 279.1764  80.9108 15.69911799  3957
STARLINK-5483           
1 55643U 23021R   23070.51651875  .00003789  00000+0  33269-4 0  9994
2 55643  70.0006  88.7937 0002877 278.6134  81.4735 15.69923947  4260
STARLINK-5502           
1 55644U 23021S   23070.51703950  .00003883  00000+0  34033-4 0  9992
2 55644  70.0001  88.7957 0003421 268.5164  91.5640 15.69931468  3954
STARLINK-5102           
1 55645U 23021T   23070.51578534 -.00001616  00000+0 -11681-4 0  9999
2 55645  70.0008  88.7908 0002693 287.0136  73.0764 15.69911072  3954
STARLINK-5104           
1 55646U 23021U   23070.51746361  .00007620  00000+0  65061-4 0  9995
2 55646  70.0006  88.7979 0003141 273.2269  86.8567 15.69933280  4267
STARLINK-5510           
1 55647U 23021V   23070.51599623  .00000356  00000+0  47327-5 0  9998
2 55647  70.0001  88.7918 0002865 276.4902  83.5968 15.69913686  3959
STARLINK-5501           
1 55648U 23021W   23070.51693940  .00002593  00000+0  23325-4 0  9992
2 55648  70.0007  88.7954 0003007 274.6907  85.3945 15.69922261  3954
STARLINK-5469           
1 55649U 23021X   23070.51620745 -.00000405  00000+0 -16024-5 0  9997
2 55649  70.0005  88.7929 0002430 287.2625  72.8305 15.69915054  3954
STARLINK-5494           
1 55650U 23021Y   23070.51662617 -.00002259  00000+0 -17034-4 0  9993
2 55650  70.0004  88.7941 0003203 269.3787  90.7042 15.69911849  3964
STARLINK-5506           
1 55651U 23021Z   23070.51715502  .00001004  00000+0  10116-4 0  9995
2 55651  70.0006  88.7962 0002891 294.0099  66.0794 15.69916239  3961
STARLINK-5487           
1 55652U 23021AA  23070.51641461  .00004555  00000+0  39635-4 0  9999
2 55652  70.0006  88.7932 0002878 274.2429  85.8438 15.69919758  3953
STARLINK-5067           
1 55653U 23021AB  23070.51588298  .00003712  00000+0  32619-4 0  9997
2 55653  70.0004  88.7916 0003544 272.5848  87.4942 15.69928742  4267
STARLINK-5070           
1 55654U 23021AC  23070.51757227  .00000896  00000+0  92189-5 0  9997
2 55654  70.0006  88.7979 0003263 269.7546  90.3276 15.69917548  3961
STARLINK-5267           
1 55655U 23021AD  23070.51514362  .00003017  00000+0  26848-4 0  9995
2 55655  70.0005  88.7880 0003258 266.8727  93.2096 15.69929357  4262
STARLINK-5326           
1 55656U 23021AE  23070.51567051  .00005251  00000+0  45388-4 0  9991
2 55656  70.0003  88.7909 0003324 262.1142  97.9677 15.69935979  4260
STARLINK-5328           
1 55657U 23021AF  23070.51535898  .00005064  00000+0  43860-4 0  9991
2 55657  70.0009  88.7891 0003048 277.7032  82.3817 15.69925530  4266
STARLINK-5307           
1 55658U 23021AG  23070.51609928  .00000525  00000+0  61340-5 0  9999
2 55658  70.0004  88.7924 0002510 279.8167  80.2745 15.69919135  3950
STARLINK-5477           
1 55659U 23021AH  23070.51524879  .00008254  00000+0  70317-4 0  9991
2 55659  70.0008  88.7887 0003218 267.2115  92.8712 15.69935728  4267
STARLINK-5467           
1 55660U 23021AJ  23070.51557426  .00001608  00000+0  15139-4 0  9994
2 55660  70.0000  88.7903 0002438 281.3628  78.7293 15.69918688  3968
STARLINK-5475           
1 55661U 23021AK  23070.51493645 -.00001332  00000+0 -93150-5 0  9993
2 55661  70.0005  88.7880 0003406 261.0245  99.0565 15.69915729  3965
STARLINK-5479           
1 55662U 23021AL  23070.51547383 -.00008058  00000+0 -65396-4 0  9995
2 55662  70.0003  88.7894 0003082 267.0310  93.0533 15.69892811  3952
STARLINK-5473           
1 55663U 23021AM  23070.51440893  .00003126  00000+0  27758-4 0  9993
2 55663  70.0001  88.7862 0003157 266.0395  94.0440 15.69925310  4265
STARLINK-5480           
1 55664U 23021AN  23070.51503858  .00009612  00000+0  81569-4 0  9991
2 55664  70.0003  88.7874 0003279 265.8358  94.2462 15.69937683  4264
STARLINK-5474           
1 55665U 23021AP  23070.51474100 -.00010893  00000+0 -89102-4 0  9995
2 55665  70.0005  88.7870 0003137 274.0113  86.0724 15.69881972  3951
STARLINK-5457           
1 55666U 23021AQ  23071.33334491  .00203073  00000+0  82901-3 0  9996
2 55666  69.9925  85.9764 0002996 269.9741 104.5128 15.85420289  4091
STARLINK-5456           
1 55667U 23021AR  23070.51430127  .00002858  00000+0  25522-4 0  9994
2 55667  70.0001  88.7856 0003297 266.2942  93.7876 15.69928086  4269
STARLINK-5455           
1 55668U 23021AS  23070.51482594  .00003700  00000+0  32518-4 0  9990
2 55668  70.0001  88.7877 0003301 265.2673  94.8146 15.69931644  4265
STARLINK-5459           
1 55669U 23021AT  23070.51451090  .00002369  00000+0  21465-4 0  9997
2 55669  70.0002  88.7867 0003276 263.9956  96.0866 15.69928755  4268
STARLINK-5423           
1 55670U 23021AU  23070.51419629  .00003302  00000+0  29215-4 0  9990
2 55670  70.0006  88.7847 0003330 262.3700  97.7118 15.69929630  4264
STARLINK-5460           
1 55671U 23021AV  23070.51356317  .00003107  00000+0  27592-4 0  9994
2 55671  70.0005  88.7822 0003332 262.8184  97.2633 15.69928408  4269
STARLINK-5461           
1 55672U 23021AW  23070.51366931  .00003471  00000+0  30618-4 0  9995
2 55672  70.0005  88.7834 0003108 263.4638  96.6204 15.69928580  4263
STARLINK-5463           
1 55673U 23021AX  23070.51399543 -.00004064  00000+0 -32078-4 0  9994
2 55673  70.0001  88.7841 0003074 275.3692  84.7153 15.69905272  3951
STARLINK-5462           
1 55674U 23021AY  23070.51377284  .00003294  00000+0  29140-4 0  9991
2 55674  70.0001  88.7832 0003047 275.0995  84.9853 15.69931818  3959
STARLINK-5232           
1 55675U 23021AZ  23070.51409718 -.00000881  00000+0 -55616-5 0  9999
2 55675  70.0005  88.7844 0002741 283.8837  76.2054 15.69915208  3951
STARLINK-5300           
1 55676U 23021BA  23070.51345784  .00009608  00000+0  81541-4 0  9991
2 55676  70.0007  88.7814 0003214 268.8804  91.2023 15.69936667  4264
STARLINK-5324           
1 55677U 23021BB  23070.51335823  .00001042  00000+0  10420-4 0  9997
2 55677  70.0010  88.7811 0002868 293.7290  66.3605 15.69951796  3950
STARLINK-5314           
1 55678U 23021BC  23070.51387932  .00003066  00000+0  27249-4 0  9991
2 55678  70.0001  88.7840 0003004 263.8282  96.2572 15.69928498  4268
INMARSAT 6-F2           
1 55683U 23022A   23069.92773461 -.00001647  00000+0 -75196-1 0  9993
2 55683  25.3829  47.1610 7442670 174.6270 204.5948  1.86219654    19
FALCON 9 R/B            
1 55684U 23022B   23069.74152943  .00014233  00000+0  25936-2 0  9991
2 55684  27.0912  46.1480 7582333 175.8062 200.1297  1.92667659   376
